ORBCOMM FM37            
1 33064U 08031E   24364.53995309  .00004590  00000+0  64907-3 0  9996
2 33064  48.4401  69.4910 0006000 355.1271  99.4975 14.78552795888930
ORBCOMM FM40            
1 33065U 08031F   24364.56182226  .00006115  00000+0  81740-3 0  9995
2 33065  48.4423  56.0676 0007280   7.5191 104.7922 14.80470290889010
VESSELSAT 1             
1 37840U 11058C   24364.76735927  .00000557  00000+0  15916-3 0  9993
2 37840  19.9633  38.9981 0013809 122.5344 237.6396 14.11285568682570
ORBCOMM FM109           
1 40086U 14040A   24364.64129214  .00002818  00000+0  64998-3 0  9992
2 40086  47.0029  96.7239 0002766 274.9537  85.1032 14.57544915556444
ORBCOMM FM107           
1 40087U 14040B   24364.54073049  .00002218  00000+0  51810-3 0  9999
2 40087  47.0045  98.2249 0002331 242.2022 117.8627 14.57680851556382
ORBCOMM FM106           
1 40088U 14040C   24364.75242374  .00004046  00000+0  71943-3 0  9992
2 40088  47.0605 292.7518 0017456 359.3061   0.7802 14.68594822558776
ORBCOMM FM111           
1 40089U 14040D   24364.73803703  .00007327  00000+0  87565-3 0  9992
2 40089  47.0000 165.3386 0029991 104.3479 256.0750 14.84567208565033
ORBCOMM FM104           
1 40090U 14040E   24364.55190435  .00002444  00000+0  58556-3 0  9998
2 40090  47.0034 129.7749 0016482 153.5918 206.5809 14.56130496555896
